$$SOE
2461295.500000000, A.D. 2026-Sep-12 00:00:00.0000, -4.275276370951965E+08, 1.366418377658312E+08, 8.392638963340417E+07,
2461302.500000000, A.D. 2026-Sep-19 00:00:00.0000, -4.306775691301094E+08, 1.279135408505471E+08, 8.457054395164630E+07,
2461309.500000000, A.D. 2026-Sep-26 00:00:00.0000, -4.336086916514375E+08, 1.191203890479442E+08, 8.517170129840019E+07,
2461316.500000000, A.D. 2026-Oct-03 00:00:00.0000, -4.363202467191548E+08, 1.102670452728758E+08, 8.572970037164770E+07,
2461323.500000000, A.D. 2026-Oct-10 00:00:00.0000, -4.388115300057443E+08, 1.013581562079109E+08, 8.624439055032530E+07,
2461330.500000000, A.D. 2026-Oct-17 00:00:00.0000, -4.410818895789294E+08, 9.239835396070635E+07, 8.671563164426906E+07,
2461337.500000000, A.D. 2026-Oct-24 00:00:00.0000, -4.431307248156835E+08, 8.339225764556840E+07, 8.714329366034095E+07,
2461344.500000000, A.D. 2026-Oct-31 00:00:00.0000, -4.449574853464994E+08, 7.434447482051222E+07, 8.752725656990042E+07,
2461351.500000000, A.D. 2026-Nov-07 00:00:00.0000, -4.465616696887639E+08, 6.525960285208316E+07, 8.786741005231202E+07,
2461358.500000000, A.D. 2026-Nov-14 00:00:00.0000, -4.479428233662562E+08, 5.614223109352791E+07, 8.816365326833169E+07,
2461365.500000000, A.D. 2026-Nov-21 00:00:00.0000, -4.491005383250218E+08, 4.699694455603261E+07, 8.841589488512200E+07,
2461372.500000000, A.D. 2026-Nov-28 00:00:00.0000, -4.500344546440012E+08, 3.782832606317293E+07, 8.862405319897433E+07,
2461379.500000000, A.D. 2026-Dec-05 00:00:00.0000, -4.507442609209279E+08, 2.864095623205801E+07, 8.878805597064109E+07,
2461386.500000000, A.D. 2026-Dec-12 00:00:00.0000, -4.512296931660033E+08, 1.943941439157449E+07, 8.890784021216735E+07,
2461393.500000000, A.D. 2026-Dec-19 00:00:00.0000, -4.514905340889701E+08, 1.022828044169594E+07, 8.898335209857765E+07,
2461400.500000000, A.D. 2026-Dec-26 00:00:00.0000, -4.515266129230272E+08, 1.012136783642299E+06, 8.901454694697572E+07,
2461407.500000000, A.D. 2027-Jan-02 00:00:00.0000, -4.513378055114111E+08, -8.204429871047422E+06, 8.900138922279179E+07,
2461414.500000000, A.D. 2027-Jan-09 00:00:00.0000, -4.509240345411571E+08, -1.741682679303684E+07, 8.894385256455232E+07,
2461421.500000000, A.D. 2027-Jan-16 00:00:00.0000, -4.502852698903266E+08, -2.662045362111416E+07, 8.884191982491988E+07,
2461428.500000000, A.D. 2027-Jan-23 00:00:00.0000, -4.494215290444075E+08, -3.581070088158119E+07, 8.869558312059729E+07,
2461435.500000000, A.D. 2027-Jan-30 00:00:00.0000, -4.483328773954489E+08, -4.498294868933562E+07, 8.850484386969508E+07,
2461442.500000000, A.D. 2027-Feb-06 00:00:00.0000, -4.470194279998922E+08, -5.413256529168731E+07, 8.826971280479917E+07,
2461449.500000000, A.D. 2027-Feb-13 00:00:00.0000, -4.454813412561011E+08, -6.325490423762442E+07, 8.799021010300493E+07,
2461456.500000000, A.D. 2027-Feb-20 00:00:00.0000, -4.437188268678705E+08, -7.234530096745928E+07, 8.766636578502053E+07,
2461463.500000000, A.D. 2027-Feb-27 00:00:00.0000, -4.417321467035612E+08, -8.139907204027997E+07, 8.729821999375409E+07,
2461470.500000000, A.D. 2027-Mar-06 00:00:00.0000, -4.395216155385953E+08, -9.041151507785971E+07, 8.688582303409481E+07,
2461477.500000000, A.D. 2027-Mar-13 00:00:00.0000, -4.370876012845914E+08, -9.937790737572074E+07, 8.642923548870862E+07,
2461484.500000000, A.D. 2027-Mar-20 00:00:00.0000, -4.344305258369053E+08, -1.082935040173551E+08, 8.592852844538321E+07,
2461491.500000000, A.D. 2027-Mar-27 00:00:00.0000, -4.315508663418648E+08, -1.171535360424734E+08, 8.538378377291192E+07,
2461498.500000000, A.D. 2027-Apr-03 00:00:00.0000, -4.284491566841532E+08, -1.259532087186769E+08, 8.479509442341843E+07,
2461505.500000000, A.D. 2027-Apr-10 00:00:00.0000, -4.251259891358426E+08, -1.346876998953385E+08, 8.416256475762552E+07,
2461512.500000000, A.D. 2027-Apr-17 00:00:00.0000, -4.215820161475055E+08, -1.433521584566233E+08, 8.348631089005995E+07,
2461519.500000000, A.D. 2027-Apr-24 00:00:00.0000, -4.178179522050635E+08, -1.519417029392969E+08, 8.276646104221421E+07,
2461526.500000000, A.D. 2027-May-01 00:00:00.0000, -4.138345754562781E+08, -1.604514202916366E+08, 8.200315587912995E+07,
2461533.500000000, A.D. 2027-May-08 00:00:00.0000, -4.096327288035880E+08, -1.688763640295046E+08, 8.119654886330353E+07,
2461540.500000000, A.D. 2027-May-15 00:00:00.0000, -4.052133219645234E+08, -1.772115508409621E+08, 8.034680684215562E+07,
2461547.500000000, A.D. 2027-May-22 00:00:00.0000, -4.005773360688983E+08, -1.854519582368578E+08, 7.945411080199070E+07,
2461554.500000000, A.D. 2027-May-29 00:00:00.0000, -3.957258274441378E+08, -1.935925247217954E+08, 7.851865636250308E+07,
2461561.500000000, A.D. 2027-Jun-05 00:00:00.0000, -3.906599297108245E+08, -2.016281493585134E+08, 7.754065418829414E+07,
2461568.500000000, A.D. 2027-Jun-12 00:00:00.0000, -3.853808562008770E+08, -2.095536902985893E+08, 7.652033053778203E+07,
2461575.500000000, A.D. 2027-Jun-19 00:00:00.0000, -3.798899030339659E+08, -2.173639632210528E+08, 7.545792790428676E+07,
2461582.500000000, A.D. 2027-Jun-26 00:00:00.0000, -3.741884525785612E+08, -2.250537399484283E+08, 7.435370570355961E+07,
2461589.500000000, A.D. 2027-Jul-03 00:00:00.0000, -3.682779771722381E+08, -2.326177472406426E+08, 7.320794099790728E+07,
2461596.500000000, A.D. 2027-Jul-10 00:00:00.0000, -3.621600430712231E+08, -2.400506657670834E+08, 7.202092925586554E+07,
2461603.500000000, A.D. 2027-Jul-17 00:00:00.0000, -3.558363145994081E+08, -2.473471293053857E+08, 7.079298514246027E+07,
2461610.500000000, A.D. 2027-Jul-24 00:00:00.0000, -3.493085583469367E+08, -2.545017242404729E+08, 6.952444332210374E+07,
2461617.500000000, A.D. 2027-Jul-31 00:00:00.0000, -3.425786470135136E+08, -2.615089891400536E+08, 6.821565925716639E+07,
2461624.500000000, A.D. 2027-Aug-07 00:00:00.0000, -3.356485631035132E+08, -2.683634132674025E+08, 6.686701011617756E+07,
2461631.500000000, A.D. 2027-Aug-14 00:00:00.0000, -3.285204047797604E+08, -2.750594342985693E+08, 6.547889598321337E+07,
2461638.500000000, A.D. 2027-Aug-21 00:00:00.0000, -3.211963932640206E+08, -2.815914386245965E+08, 6.405174103820767E+07,
2461645.500000000, A.D. 2027-Aug-28 00:00:00.0000, -3.136788783609876E+08, -2.879537630537239E+08, 6.258599449365512E+07,
2461652.500000000, A.D. 2027-Sep-04 00:00:00.0000, -3.059703432944453E+08, -2.941406954292969E+08, 6.108213160211229E+07,
2461659.500000000, A.D. 2027-Sep-11 00:00:00.0000, -2.980734102568606E+08, -3.001464748433420E+08, 5.954065480942620E+07,
2461666.500000000, A.D. 2027-Sep-18 00:00:00.0000, -2.899908465443420E+08, -3.059652921167237E+08, 5.796209498907682E+07,
2461673.500000000, A.D. 2027-Sep-25 00:00:00.0000, -2.817255710533690E+08, -3.115912906465011E+08, 5.634701273110203E+07,
2461680.500000000, A.D. 2027-Oct-02 00:00:00.0000, -2.732806610697182E+08, -3.170185676170954E+08, 5.469599968178508E+07,
2461687.500000000, A.D. 2027-Oct-09 00:00:00.0000, -2.646593593314552E+08, -3.222411756041793E+08, 5.300967993208274E+07,
2461694.500000000, A.D. 2027-Oct-16 00:00:00.0000, -2.558650813044669E+08, -3.272531246514757E+08, 5.128871144427203E+07,
2461701.500000000, A.D. 2027-Oct-23 00:00:00.0000, -2.469014224093825E+08, -3.320483848543169E+08, 4.953378749190368E+07,
2461708.500000000, A.D. 2027-Oct-30 00:00:00.0000, -2.377721648223314E+08, -3.366208888721621E+08, 4.774563812812269E+07,
2461715.500000000, A.D. 2027-Nov-06 00:00:00.0000, -2.284812850098619E+08, -3.409645332783019E+08, 4.592503188110426E+07,
2461722.500000000, A.D. 2027-Nov-13 00:00:00.0000, -2.190329639799279E+08, -3.450731808621278E+08, 4.407277768881570E+07,
2461729.500000000, A.D. 2027-Nov-20 00:00:00.0000, -2.094315973430213E+08, -3.489406661120259E+08, 4.218972662797032E+07,
2461736.500000000, A.D. 2027-Nov-27 00:00:00.0000, -1.996818035606767E+08, -3.525608009582304E+08, 4.027677353034604E+07,
2461743.500000000, A.D. 2027-Dec-04 00:00:00.0000, -1.897884323959749E+08, -3.559273799055471E+08, 3.833485874498676E+07,
2461750.500000000, A.D. 2027-Dec-11 00:00:00.0000, -1.797565741028147E+08, -3.590341855649267E+08, 3.636497001513508E+07,
2461757.500000000, A.D. 2027-Dec-18 00:00:00.0000, -1.695915690603208E+08, -3.618749949705058E+08, 3.436814441317558E+07,
2461764.500000000, A.D. 2027-Dec-25 00:00:00.0000, -1.592990176770237E+08, -3.644435867351872E+08, 3.234547031492648E+07,
2461771.500000000, A.D. 2028-Jan-01 00:00:00.0000, -1.488847904957730E+08, -3.667337490847265E+08, 3.029808940553111E+07,
$$EOE